{
  "type": "FeatureCollection",
  "features": [
    {
      "type": "Feature",
      "properties": {
        "norad_id": 38001,
        "name": "COSMOS 2251 DEB",
        "group": "cosmos-2251-debris",
        "lat": -61.80664726520344,
        "lon": -14.4860035652989,
        "alt_km": 601.9482938095316,
        "timestamp": "2025-12-12T07:43:20.913907+00:00",
        "meta_object_name": "COSMOS 2251 DEB",
        "meta_object_id": "1993-036BRC",
        "meta_epoch": "2025-12-10T21:13:30.070848",
        "meta_mean_motion": 14.79039652,
        "meta_eccentricity": 0.0065474,
        "meta_inclination": 74.0007,
        "meta_ra_of_asc_node": 135.9844,
        "meta_arg_of_pericenter": 285.8073,
        "meta_mean_anomaly": 230.7209,
        "meta_ephemeris_type": 0,
        "meta_classification_type": "U",
        "meta_norad_cat_id": 38001,
        "meta_element_set_no": 999,
        "meta_rev_at_epoch": 74680,
        "meta_bstar": 0.0012082,
        "meta_mean_motion_dot": 9.24e-05,
        "meta_mean_motion_ddot": 0,
        "tle_line1": "1 38001U 93036BRC 25344.88437582  .00009240  00000+0  12082-2 0  9995",
        "tle_line2": "2 38001  74.0007 135.9844 0065474 285.8073 230.7209 14.79039652746809"
      },
      "geometry": {
        "type": "Point",
        "coordinates": [
          -14.4860035652989,
          -61.80664726520344
        ]
      }
    },
    {
      "type": "Feature",
      "properties": {
        "norad_id": 38006,
        "name": "COSMOS 2251 DEB",
        "group": "cosmos-2251-debris",
        "lat": 39.80425405576843,
        "lon": -155.10647589728447,
        "alt_km": 784.0212723938548,
        "timestamp": "2025-12-12T07:43:20.913918+00:00",
        "meta_object_name": "COSMOS 2251 DEB",
        "meta_object_id": "1993-036BRH",
        "meta_epoch": "2025-12-10T03:36:37.956384",
        "meta_mean_motion": 14.45867865,
        "meta_eccentricity": 0.00758537,
        "meta_inclination": 73.8744,
        "meta_ra_of_asc_node": 42.933,
        "meta_arg_of_pericenter": 348.3853,
        "meta_mean_anomaly": 11.555,
        "meta_ephemeris_type": 0,
        "meta_classification_type": "U",
        "meta_norad_cat_id": 38006,
        "meta_element_set_no": 999,
        "meta_rev_at_epoch": 62922,
        "meta_bstar": 0.0047338847,
        "meta_mean_motion_dot": 0.00017443,
        "meta_mean_motion_ddot": 0,
        "tle_line1": "1 38006U 93036BRH 25344.15043931  .00017443  00000+0  47339-2 0  9998",
        "tle_line2": "2 38006  73.8744  42.9330 0075853 348.3853  11.5550 14.45867865629227"
      },
      "geometry": {
        "type": "Point",
        "coordinates": [
          -155.10647589728447,
          39.80425405576843
        ]
      }
    },
    {
      "type": "Feature",
      "properties": {
        "norad_id": 38054,
        "name": "COSMOS 2251 DEB",
        "group": "cosmos-2251-debris",
        "lat": 22.4256607483243,
        "lon": -86.69783361703448,
        "alt_km": 1222.9069405783366,
        "timestamp": "2025-12-12T07:43:20.913928+00:00",
        "meta_object_name": "COSMOS 2251 DEB",
        "meta_object_id": "1993-036BRL",
        "meta_epoch": "2025-12-06T19:35:06.065952",
        "meta_mean_motion": 13.62293123,
        "meta_eccentricity": 0.0360398,
        "meta_inclination": 73.9587,
        "meta_ra_of_asc_node": 275.4844,
        "meta_arg_of_pericenter": 254.7432,
        "meta_mean_anomaly": 133.9151,
        "meta_ephemeris_type": 0,
        "meta_classification_type": "U",
        "meta_norad_cat_id": 38054,
        "meta_element_set_no": 999,
        "meta_rev_at_epoch": 67099,
        "meta_bstar": 0.0049752628,
        "meta_mean_motion_dot": 5.934e-05,
        "meta_mean_motion_ddot": 0,
        "tle_line1": "1 38054U 93036BRL 25340.81604243  .00005934  00000+0  49753-2 0  9993",
        "tle_line2": "2 38054  73.9587 275.4844 0360398 254.7432 133.9151 13.62293123670997"
      },
      "geometry": {
        "type": "Point",
        "coordinates": [
          -86.69783361703448,
          22.4256607483243
        ]
      }
    },
    {
      "type": "Feature",
      "properties": {
        "norad_id": 38055,
        "name": "COSMOS 2251 DEB",
        "group": "cosmos-2251-debris",
        "lat": 37.625610750938314,
        "lon": 14.807887299340411,
        "alt_km": 680.4295706107978,
        "timestamp": "2025-12-12T07:43:20.913938+00:00",
        "meta_object_name": "COSMOS 2251 DEB",
        "meta_object_id": "1993-036BRM",
        "meta_epoch": "2025-12-11T09:07:57.721152",
        "meta_mean_motion": 14.76955256,
        "meta_eccentricity": 0.00657701,
        "meta_inclination": 74.0089,
        "meta_ra_of_asc_node": 209.4259,
        "meta_arg_of_pericenter": 337.2903,
        "meta_mean_anomaly": 200.444,
        "meta_ephemeris_type": 0,
        "meta_classification_type": "U",
        "meta_norad_cat_id": 38055,
        "meta_element_set_no": 999,
        "meta_rev_at_epoch": 60662,
        "meta_bstar": 0.0014257024,
        "meta_mean_motion_dot": 0.00010385,
        "meta_mean_motion_ddot": 0,
        "tle_line1": "1 38055U 93036BRM 25345.38052918  .00010385  00000+0  14257-2 0  9994",
        "tle_line2": "2 38055  74.0089 209.4259 0065770 337.2903 200.4440 14.76955256606628"
      },
      "geometry": {
        "type": "Point",
        "coordinates": [
          14.807887299340411,
          37.625610750938314
        ]
      }
    },
    {
      "type": "Feature",
      "properties": {
        "norad_id": 38060,
        "name": "COSMOS 2251 DEB",
        "group": "cosmos-2251-debris",
        "lat": 23.59656811694996,
        "lon": -56.71047047023375,
        "alt_km": 640.8335226609688,
        "timestamp": "2025-12-12T07:43:20.913949+00:00",
        "meta_object_name": "COSMOS 2251 DEB",
        "meta_object_id": "1993-036BRS",
        "meta_epoch": "2025-12-11T05:22:06.825504",
        "meta_mean_motion": 14.63841303,
        "meta_eccentricity": 0.00580419,
        "meta_inclination": 74.0431,
        "meta_ra_of_asc_node": 298.2163,
        "meta_arg_of_pericenter": 44.676,
        "meta_mean_anomaly": 315.9062,
        "meta_ephemeris_type": 0,
        "meta_classification_type": "U",
        "meta_norad_cat_id": 38060,
        "meta_element_set_no": 999,
        "meta_rev_at_epoch": 71942,
        "meta_bstar": 0.00092465515,
        "meta_mean_motion_dot": 4.921e-05,
        "meta_mean_motion_ddot": 0,
        "tle_line1": "1 38060U 93036BRS 25345.22369011  .00004921  00000+0  92466-3 0  9996",
        "tle_line2": "2 38060  74.0431 298.2163 0058041  44.6760 315.9062 14.63841303719426"
      },
      "geometry": {
        "type": "Point",
        "coordinates": [
          -56.71047047023375,
          23.59656811694996
        ]
      }
    },
    {
      "type": "Feature",
      "properties": {
        "norad_id": 38062,
        "name": "COSMOS 2251 DEB",
        "group": "cosmos-2251-debris",
        "lat": -51.33067738750296,
        "lon": -89.6774232387178,
        "alt_km": 592.9507298850958,
        "timestamp": "2025-12-12T07:43:20.913959+00:00",
        "meta_object_name": "COSMOS 2251 DEB",
        "meta_object_id": "1993-036BRU",
        "meta_epoch": "2025-12-06T04:12:38.753856",
        "meta_mean_motion": 14.94290132,
        "meta_eccentricity": 0.00122346,
        "meta_inclination": 74.0094,
        "meta_ra_of_asc_node": 303.7202,
        "meta_arg_of_pericenter": 72.1633,
        "meta_mean_anomaly": 298.7726,
        "meta_ephemeris_type": 0,
        "meta_classification_type": "U",
        "meta_norad_cat_id": 38062,
        "meta_element_set_no": 999,
        "meta_rev_at_epoch": 62932,
        "meta_bstar": 0.0035053507,
        "meta_mean_motion_dot": 0.00037877,
        "meta_mean_motion_ddot": 0,
        "tle_line1": "1 38062U 93036BRU 25340.17544854  .00037877  00000+0  35054-2 0  9992",
        "tle_line2": "2 38062  74.0094 303.7202 0012234  72.1633 298.7726 14.94290132629324"
      },
      "geometry": {
        "type": "Point",
        "coordinates": [
          -89.6774232387178,
          -51.33067738750296
        ]
      }
    },
    {
      "type": "Feature",
      "properties": {
        "norad_id": 38064,
        "name": "COSMOS 2251 DEB",
        "group": "cosmos-2251-debris",
        "lat": -69.27674050337943,
        "lon": 75.70274119081418,
        "alt_km": 685.8079683842225,
        "timestamp": "2025-12-12T07:43:20.913969+00:00",
        "meta_object_name": "COSMOS 2251 DEB",
        "meta_object_id": "1993-036BRW",
        "meta_epoch": "2025-12-11T15:35:10.141152",
        "meta_mean_motion": 14.5628474,
        "meta_eccentricity": 0.00474911,
        "meta_inclination": 74.0221,
        "meta_ra_of_asc_node": 126.2067,
        "meta_arg_of_pericenter": 246.0166,
        "meta_mean_anomaly": 113.6022,
        "meta_ephemeris_type": 0,
        "meta_classification_type": "U",
        "meta_norad_cat_id": 38064,
        "meta_element_set_no": 999,
        "meta_rev_at_epoch": 71849,
        "meta_bstar": 0.001607911,
        "meta_mean_motion_dot": 7.206e-05,
        "meta_mean_motion_ddot": 0,
        "tle_line1": "1 38064U 93036BRW 25345.64942293  .00007206  00000+0  16079-2 0  9999",
        "tle_line2": "2 38064  74.0221 126.2067 0047491 246.0166 113.6022 14.56284740718498"
      },
      "geometry": {
        "type": "Point",
        "coordinates": [
          75.70274119081418,
          -69.27674050337943
        ]
      }
    }
  ]
}